[{"OBJECT_NAME":"STARLINK-1143","OBJECT_ID":"2020-012B","EPOCH":"2026-03-09T22:47:16.050048","MEAN_MOTION":15.62989311,"ECCENTRICITY":0.00073955,"INCLINATION":53.0474,"RA_OF_ASC_NODE":328.6332,"ARG_OF_PERICENTER":96.968,"MEAN_ANOMALY":263.2175,"EPHEMERIS_TYPE":0,"CLASSIFICATION_TYPE":"U","NORAD_CAT_ID":45179,"ELEMENT_SET_NO":999,"REV_AT_EPOCH":33596,"BSTAR":0.0013180943,"MEAN_MOTION_DOT":0.00123267,"MEAN_MOTION_DDOT":0},{"OBJECT_NAME":"CUTE","OBJECT_ID":"2021-088D","EPOCH":"2026-03-09T17:50:19.960512","MEAN_MOTION":15.66742985,"ECCENTRICITY":0.00029853,"INCLINATION":97.4217,"RA_OF_ASC_NODE":160.9488,"ARG_OF_PERICENTER":311.8263,"MEAN_ANOMALY":48.2742,"EPHEMERIS_TYPE":0,"CLASSIFICATION_TYPE":"U","NORAD_CAT_ID":49263,"ELEMENT_SET_NO":999,"REV_AT_EPOCH":24688,"BSTAR":0.00040035003,"MEAN_MOTION_DOT":0.00042102,"MEAN_MOTION_DDOT":0}]
